1 20253U 89077A   26113.52423892 -.00000380  00000-0  00000-0 0  9993
2 20253  12.4371 351.4937 0007494   6.8859 167.2895  1.00261763260017
1 20776U 90079A   26112.81445934  .00000116  00000-0  00000-0 0  9995
2 20776  13.3581 350.1947 0002560  25.0596 162.2134  1.00267408130331
1 22787U 93056A   26113.31294608  .00000114  00000-0  00000-0 0  9991
2 22787  11.8765   3.8555 0008769 353.7411 355.1179  1.00277054117990
1 23467U 95003A   26113.46214381 -.00000033  00000-0  00000-0 0  9998
2 23467   9.7119  13.4127 0003480  16.2924 160.4571  1.00272743114408
1 23967U 96042A   26112.06643395 -.00000267  00000-0  00000-0 0  9992
2 23967  11.0648  17.3887 0007229  96.1964  85.5807  1.00231254108929
1 25544U 98067A   26113.55475666  .00008745  00000-0  16716-3 0  9995
2 25544  51.6320 210.5007 0006819 341.8336  18.2408 15.48911267563287
1 25967U 99063A   26112.08030950 -.00000194  00000-0  00000-0 0  9998
2 25967   9.8402  27.4977 0004182 350.6248 198.1763  1.00273529 96787
1 27168U 02001A   26112.83807884  .00000089  00000-0  00000-0 0  9992
2 27168  11.1152  22.2435 0099864   7.2426 142.1628  1.00277772 32408
1 27607U 02058C   26112.92591693  .00000701  00000-0  10060-3 0  9991
2 27607  64.5516 299.9462 0075576 272.5223  86.7232 14.82920073256260
1 28117U 03057A   26112.82336399 -.00000112  00000-0  00000+0 0  9993
2 28117   8.9278  34.0980 0002827 343.7898 204.8297  1.00272121 81894
1 28899U 05044A   26113.52779227 -.00000272  00000-0  00000-0 0  9995
2 28899   5.0269  43.7567 0002532 342.4662 158.8175  1.00268693 74978
1 30794U 07007B   26113.44689042 -.00000281  00000-0  00000-0 0  9999
2 30794   5.1629  74.3892 0004205 331.1740  62.0288  1.00269636 70153
1 32294U 07056B   26113.50430552  .00000130  00000-0  00000-0 0  9999
2 32294   5.1145  74.1375 0003833 316.9678  27.1121  1.00274878 67646
1 35943U 09054B   26113.51184554  .00000012  00000-0  00000-0 0  9991
2 35943   0.0370  65.2883 0003350 331.3225  62.2189  1.00270460 60765
1 36582U 10021B   26113.28808112  .00000077  00000-0  00000-0 0  9995
2 36582   0.0143 248.6880 0002837 160.7739 278.8046  1.00276870 58406
1 38098U 12011A   26113.51366556 -.00000071  00000-0  00000-0 0  9992
2 38098   0.0165 137.4508 0001781 257.2824  73.8543  1.00270480  6645
1 39034U 12075A   26113.50976554  .00000087  00000-0  00000-0 0  9993
2 39034   0.0704 358.4050 0003568  29.3702  60.0390  1.00270946 48618
1 39215U 13038A   26113.50430552  .00000122  00000-0  00000-0 0  9997
2 39215   2.9919   1.8002 0002023  58.8202 357.3516  1.00270026 43471
1 40296U 14069A   26112.34993465  .00000178  00000-0  00000-0 0  9992
2 40296  63.4483 220.8549 6668716 270.9178  19.3618  2.00584978 84110
1 40931U 15052B   25151.18580175  .00001241  00000-0  78118-4 0  9996
2 40931   6.0006  24.0987 0012733 338.8432  21.1169 14.78805930523159
1 43678U 18084H   26113.61428372  .00001906  00000-0  15758-3 0  9990
2 43678  98.1061 307.5028 0013476 355.9878   4.1234 15.00177546408031
1 43700U 18090A   26113.50439219  .00000131  00000-0  00000-0 0  9993
2 43700   0.0087 203.3803 0001134 206.6738   8.8464  1.00272813 27127
1 43803U 18099AX  26113.12619451  .00012547  00000-0  40968-3 0  9996
2 43803  97.4165 175.8332 0007544 107.9022 252.3043 15.31873035405196
1 44453U 19046A   26111.39073749 -.00000045  00000-0  00000-0 0  9993
2 44453  63.0776  58.0629 7058930 274.7018  14.9365  2.00612859 49208
1 44909U 19096E   26113.20012547  .00000014  00000-0  19795-4 0  9995
2 44909  82.5262  16.2441 0216385 273.0045  84.6315 12.79747967295313
1 45254U 20015A   26112.63481807 -.00000043  00000-0  00000-0 0  9995
2 45254  65.5071 324.9017 6876527 278.8500  14.8125  2.00602307 45171
1 52145U 22030A   26112.64168102  .00000220  00000-0  00000-0 0  9998
2 52145  62.6745 146.7422 6769568 272.9065  17.7476  2.00616441 29910
1 57167U 23091B   26010.59363612  .08733485  25619-5  12458-2 0  9993
2 57167  97.4978  91.1570 0009532 282.8011  77.2220 16.34765267141469
1 59112U 24043Q   26113.37138629  .00027902  00000-0  41966-3 0  9992
2 59112  97.5475 260.5969 0006947  50.7420 309.4449 15.54793809119362
1 67291U 25313AV  26112.72248098  .00009022  00000-0  36609-3 0  9991
2 67291  97.3943 188.5688 0009607 180.7107 179.4119 15.24794132 17538
1 26635U 00080A   21013.46269075 0.00000000  00000-0  00000-0 0    09
2 26635   9.2857  29.8038 0014383 186.3086 173.6859  1.00273100    09
1 34810U 09020A   25358.93258989 0.00000000  00000-0  00000-0 0    06
2 34810   2.7881  81.1408 0004972 246.2147 113.7417  1.00270000    08
1 40614U 15022B   25359.93496764 0.00000000  00000-0  00000-0 0    00
2 40614   0.0160 108.2839 0003453 352.8976   7.0980  1.00270000    04
